GUOWANG GROUP 20 OBJECT*
1 68130U 26047B   26078.05501345 -.00000148  00000+0  25318-5 0  9990
2 68130  50.0044  32.2582 0007546 277.9720  82.0329 14.05761022   878
GUOWANG GROUP 20 OBJECT*
1 68131U 26047C   26078.62349940 -.00000148  00000+0  24365-5 0  9996
2 68131  50.0037  29.9293 0008114 287.0160  72.9856 14.05810373   962
GUOWANG GROUP 20 OBJECT*
1 68132U 26047D   26078.12556338 -.00000146  00000+0  36920-5 0  9991
2 68132  50.0078  31.9684 0008434 289.4802  70.5192 14.05881519   887
GUOWANG GROUP 20 OBJECT*
1 68133U 26047E   26076.06403444 -.00000145  00000+0  46301-5 0  9995
2 68133  50.0041  40.3867 0006830 274.9069  85.1056 14.05931996   603
GUOWANG GROUP 20 OBJECT*
1 68134U 26047F   26078.97756282 -.00000149  00000+0  20813-5 0  9993
2 68134  50.0091  28.4795 0006391 289.3722  70.6492 14.06079851  1006
GUOWANG GROUP 20 OBJECT*
1 68135U 26047G   26078.19590449 -.00000144  00000+0  48751-5 0  9995
2 68135  50.0116  31.6805 0007386 291.8734  68.1386 14.06047332   900
GUOWANG GROUP 20 OBJECT*
1 68136U 26047H   26077.98225515 -.00000146  00000+0  41386-5 0  9990
2 68136  50.0089  32.5476 0007509 297.2561  62.7580 14.06144171   869
GUOWANG GROUP 20 OBJECT*
1 68137U 26047J   26077.98170420 -.00000144  00000+0  48405-5 0  9992
2 68137  50.0089  32.5436 0005912 296.0035  64.0262 14.06269806   871
CZ-8A R/B               
1 68138U 26047K   26079.15938865 -.00000087  00000+0  36056-4 0  9993
2 68138  49.9541  27.3750 0044747 174.3761 185.7657 14.12228617  1036
SHIYAN-30 03            
1 68139U 26048A   26079.14619498  .00002337  00000+0  23065-3 0  9996
2 68139  34.9999  81.3772 0003981 293.2303  66.7982 14.91679722  1066
SHIYAN-30 04            
1 68140U 26048B   26079.14696789  .00002239  00000+0  22101-3 0  9997
2 68140  34.9914  81.3847 0002487 295.7799  64.2649 14.91690090  1068
CZ-2D R/B               
1 68141U 26048C   26079.19763334  .00001470  00000+0  13271-3 0  9998
2 68141  35.1295  81.0842 0015016  56.3124 303.9014 14.95532649  1070
STARLINK-36604          
1 68142U 26049A   26078.57838178 -.00601426  12954-3 -10855-2 0  9998
2 68142  97.2797  98.1391 0000555  65.4234 294.7104 16.01563866   968
STARLINK-36995          
1 68143U 26049B   26078.26577997 -.00531426  10413-3 -90105-3 0  9991
2 68143  97.2800  97.7985 0000959  13.3742 346.7563 16.02629136   918
STARLINK-37020          
1 68144U 26049C   26078.51432062  .00978873  50884-3  15014-2 0  9993
2 68144  97.2794  98.0724 0000467 166.1555 193.9739 16.04472428   952
STARLINK-36244          
1 68145U 26049D   26078.01410660 -.00404794  63915-4 -62437-3 0  9999
2 68145  97.2798  97.5283 0000395  95.7237 264.4089 16.04211622   875
